[{"OBJECT_NAME":"STARLINK-2291","OBJECT_ID":"2021-021C","EPOCH":"2026-03-09T17:34:29.054208","MEAN_MOTION":15.3018529,"ECCENTRICITY":9.91e-5,"INCLINATION":53.1588,"RA_OF_ASC_NODE":255.0616,"ARG_OF_PERICENTER":118.3853,"MEAN_ANOMALY":241.7248,"EPHEMERIS_TYPE":0,"CLASSIFICATION_TYPE":"U","NORAD_CAT_ID":47862,"ELEMENT_SET_NO":999,"REV_AT_EPOCH":27643,"BSTAR":1.7319636e-5,"MEAN_MOTION_DOT":1.54e-6,"MEAN_MOTION_DDOT":0},{"OBJECT_NAME":"GEISAT PRECURSOR","OBJECT_ID":"2023-084C","EPOCH":"2026-03-09T22:20:25.833120","MEAN_MOTION":15.33054389,"ECCENTRICITY":0.00051675,"INCLINATION":97.6055,"RA_OF_ASC_NODE":206.8263,"ARG_OF_PERICENTER":345.1842,"MEAN_ANOMALY":14.9247,"EPHEMERIS_TYPE":0,"CLASSIFICATION_TYPE":"U","NORAD_CAT_ID":56934,"ELEMENT_SET_NO":999,"REV_AT_EPOCH":15231,"BSTAR":0.00033857167,"MEAN_MOTION_DOT":0.00010736,"MEAN_MOTION_DDOT":0}]
